start=new Date('2023-01-22T00:00:00.000Z').valueOf();
sats=[{"NORAD_CAT_ID":"47581","ELEMENT_SET_NO":"999","ARG_OF_PERICENTER":"85.5173","PERIOD":"95.592","EPOCH":"2023-01-21T11:28:33.456864","REV_AT_EPOCH":"10937","SITE":"AFETR","RCS_SIZE":"LARGE","INCLINATION":"53.0540","DECAY_DATE":null,"MEAN_MOTION_DOT":"0.00003219","TLE_LINE1":"1 47581U 21009AK  23021.47816501  .00003219  00000-0  23485-3 0  9997","PERIAPSIS":"546.413","RA_OF_ASC_NODE":"93.7007","TIME_SYSTEM":"UTC","OBJECT_NAME":"STARLINK-1984","MEAN_MOTION_DDOT":"0.0000000000000","BSTAR":"0.00023485000000","MEAN_MOTION":"15.06408206","SEMIMAJOR_AXIS":"6925.323","MEAN_ANOMALY":"274.5943","OBJECT_ID":"2021-009AK","TLE_LINE2":"2 47581  53.0540  93.7007 0001119  85.5173 274.5943 15.06408206109377","CLASSIFICATION_TYPE":"U","ECCENTRICITY":"0.00011190","FILE":"3756985","GP_ID":"223573013","COUNTRY_CODE":"US","OBJECT_TYPE":"PAYLOAD","LAUNCH_DATE":"2021-02-04","REF_FRAME":"TEME","APOAPSIS":"547.963","CENTER_NAME":"EARTH","EPHEMERIS_TYPE":"0","MEAN_ELEMENT_THEORY":"SGP4"},{"MEAN_ELEMENT_THEORY":"SGP4","CENTER_NAME":"EARTH","EPHEMERIS_TYPE":"0","APOAPSIS":"547.947","REF_FRAME":"TEME","LAUNCH_DATE":"2021-02-04","OBJECT_TYPE":"PAYLOAD","COUNTRY_CODE":"US","GP_ID":"223573486","FILE":"3756985","ECCENTRICITY":"0.00011150","CLASSIFICATION_TYPE":"U","TLE_LINE2":"2 47582  53.0537 113.7619 0001115  66.6832 293.4274 15.06412566109083","MEAN_ANOMALY":"293.4274","OBJECT_ID":"2021-009AL","SEMIMAJOR_AXIS":"6925.310","BSTAR":"0.00076481000000","MEAN_MOTION":"15.06412566","MEAN_MOTION_DDOT":"0.0000000000000","OBJECT_NAME":"STARLINK-1986","TIME_SYSTEM":"UTC","RA_OF_ASC_NODE":"113.7619","PERIAPSIS":"546.403","TLE_LINE1":"1 47582U 21009AL  23021.46526842  .00011132  00000-0  76481-3 0  9990","MEAN_MOTION_DOT":"0.00011132","DECAY_DATE":null,"INCLINATION":"53.0537","RCS_SIZE":"LARGE","SITE":"AFETR","REV_AT_EPOCH":"10908","EPOCH":"2023-01-21T11:09:59.191488","PERIOD":"95.591","ARG_OF_PERICENTER":"66.6832","ELEMENT_SET_NO":"999","NORAD_CAT_ID":"47582"},{"COUNTRY_CODE":"US","GP_ID":"223578911","EPHEMERIS_TYPE":"0","CENTER_NAME":"EARTH","MEAN_ELEMENT_THEORY":"SGP4","LAUNCH_DATE":"2021-02-04","REF_FRAME":"TEME","APOAPSIS":"547.932","OBJECT_TYPE":"PAYLOAD","CLASSIFICATION_TYPE":"U","MEAN_ANOMALY":"283.9733","OBJECT_ID":"2021-009AM","TLE_LINE2":"2 47583  53.0530 113.5660 0001068  76.1375 283.9733 15.06406872109106","SEMIMAJOR_AXIS":"6925.327","FILE":"3757203","ECCENTRICITY":"0.00010680","TLE_LINE1":"1 47583U 21009AM  23021.50949635  .00000710  00000-0  66555-4 0  9997","DECAY_DATE":null,"MEAN_MOTION_DOT":"0.00000710","RCS_SIZE":"LARGE","INCLINATION":"53.0530","BSTAR":"0.00006655500000","MEAN_MOTION":"15.06406872","OBJECT_NAME":"STARLINK-1987","MEAN_MOTION_DDOT":"0.0000000000000","PERIAPSIS":"546.453","TIME_SYSTEM":"UTC","RA_OF_ASC_NODE":"113.5660","PERIOD":"95.592","ARG_OF_PERICENTER":"76.1375","NORAD_CAT_ID":"47583","ELEMENT_SET_NO":"999","REV_AT_EPOCH":"10910","SITE":"AFETR","EPOCH":"2023-01-21T12:13:40.484640"},{"PERIAPSIS":"546.430","TIME_SYSTEM":"UTC","RA_OF_ASC_NODE":"113.7343","OBJECT_NAME":"STARLINK-1989","MEAN_MOTION_DDOT":"0.0000000000000","BSTAR":"0.00008384000000","MEAN_MOTION":"15.06392711","RCS_SIZE":"LARGE","INCLINATION":"53.0523","DECAY_DATE":null,"MEAN_MOTION_DOT":"0.00000967","TLE_LINE1":"1 47585U 21009AP  23021.46895898  .00000967  00000-0  83840-4 0  9995","EPOCH":"2023-01-21T11:15:18.055872","REV_AT_EPOCH":"10908","SITE":"AFETR","NORAD_CAT_ID":"47585","ELEMENT_SET_NO":"999","ARG_OF_PERICENTER":"77.3727","PERIOD":"95.593","OBJECT_TYPE":"PAYLOAD","REF_FRAME":"TEME","LAUNCH_DATE":"2021-02-04","APOAPSIS":"548.042","CENTER_NAME":"EARTH","EPHEMERIS_TYPE":"0","MEAN_ELEMENT_THEORY":"SGP4","GP_ID":"223579034","COUNTRY_CODE":"US","ECCENTRICITY":"0.00011640","FILE":"3757203","SEMIMAJOR_AXIS":"6925.371","OBJECT_ID":"2021-009AP","MEAN_ANOMALY":"282.7392","TLE_LINE2":"2 47585  53.0523 113.7343 0001164  77.3727 282.7392 15.06392711109082","CLASSIFICATION_TYPE":"U"},{"ECCENTRICITY":"0.00010600","FILE":"3756626","SEMIMAJOR_AXIS":"6925.319","TLE_LINE2":"2 47586  53.0550 135.6044 0001060  84.0880 276.0230 15.06409766108742","OBJECT_ID":"2021-009AQ","MEAN_ANOMALY":"276.0230","CLASSIFICATION_TYPE":"U","OBJECT_TYPE":"PAYLOAD","APOAPSIS":"547.918","REF_FRAME":"TEME","LAUNCH_DATE":"2021-02-04","MEAN_ELEMENT_THEORY":"SGP4","EPHEMERIS_TYPE":"0","CENTER_NAME":"EARTH","COUNTRY_CODE":"US","GP_ID":"223565176","EPOCH":"2023-01-21T01:18:09.969984","SITE":"AFETR","REV_AT_EPOCH":"10874","NORAD_CAT_ID":"47586","ELEMENT_SET_NO":"999","ARG_OF_PERICENTER":"84.0880","PERIOD":"95.592","RA_OF_ASC_NODE":"135.6044","TIME_SYSTEM":"UTC","PERIAPSIS":"546.450","MEAN_MOTION_DDOT":"0.0000000000000","OBJECT_NAME":"STARLINK-1990","BSTAR":"0.00029704000000","MEAN_MOTION":"15.06409766","INCLINATION":"53.0550","RCS_SIZE":"LARGE","MEAN_MOTION_DOT":"0.00004147","DECAY_DATE":null,"TLE_LINE1":"1 47586U 21009AQ  23021.05428206  .00004147  00000-0  29704-3 0  9998"},{"MEAN_MOTION_DDOT":"0.0000000000000","OBJECT_NAME":"STARLINK-1991","RA_OF_ASC_NODE":"103.2424","TIME_SYSTEM":"UTC","PERIAPSIS":"546.380","BSTAR":"0.00019153000000","MEAN_MOTION":"15.06404980","MEAN_MOTION_DOT":"0.00002573","DECAY_DATE":null,"INCLINATION":"53.0522","RCS_SIZE":"LARGE","TLE_LINE1":"1 47587U 21009AR  23021.58045323  .00002573  00000-0  19153-3 0  9990","SITE":"AFETR","REV_AT_EPOCH":"10924","EPOCH":"2023-01-21T13:55:51.159072","NORAD_CAT_ID":"47587","ELEMENT_SET_NO":"999","PERIOD":"95.592","ARG_OF_PERICENTER":"94.8967","OBJECT_TYPE":"PAYLOAD","MEAN_ELEMENT_THEORY":"SGP4","EPHEMERIS_TYPE":"0","CENTER_NAME":"EARTH","APOAPSIS":"548.016","REF_FRAME":"TEME","LAUNCH_DATE":"2021-02-04","GP_ID":"223578917","COUNTRY_CODE":"US","ECCENTRICITY":"0.00011810","FILE":"3757204","TLE_LINE2":"2 47587  53.0522 103.2424 0001181  94.8967 265.2156 15.06404980109240","OBJECT_ID":"2021-009AR","MEAN_ANOMALY":"265.2156","SEMIMAJOR_AXIS":"6925.333","CLASSIFICATION_TYPE":"U"},{"ECCENTRICITY":"0.00013790","FILE":"3756985","TLE_LINE2":"2 47588  53.0539 113.5678 0001379  67.5648 292.5487 15.06413437109108","OBJECT_ID":"2021-009AS","MEAN_ANOMALY":"292.5487","SEMIMAJOR_AXIS":"6925.307","CLASSIFICATION_TYPE":"U","OBJECT_TYPE":"PAYLOAD","MEAN_ELEMENT_THEORY":"SGP4","CENTER_NAME":"EARTH","EPHEMERIS_TYPE":"0","APOAPSIS":"548.127","REF_FRAME":"TEME","LAUNCH_DATE":"2021-02-04","GP_ID":"223573489","COUNTRY_CODE":"US","SITE":"AFETR","REV_AT_EPOCH":"10910","EPOCH":"2023-01-21T12:08:22.354656","NORAD_CAT_ID":"47588","ELEMENT_SET_NO":"999","PERIOD":"95.591","ARG_OF_PERICENTER":"67.5648","MEAN_MOTION_DDOT":"0.0000000000000","OBJECT_NAME":"STARLINK-1993","RA_OF_ASC_NODE":"113.5678","TIME_SYSTEM":"UTC","PERIAPSIS":"546.217","BSTAR":"0.00062052000000","MEAN_MOTION":"15.06413437","MEAN_MOTION_DOT":"0.00008976","DECAY_DATE":null,"INCLINATION":"53.0539","RCS_SIZE":"LARGE","TLE_LINE1":"1 47588U 21009AS  23021.50581429  .00008976  00000-0  62052-3 0  9994"},{"EPOCH":"2023-01-21T04:37:13.022976","SITE":"AFETR","REV_AT_EPOCH":"10904","ARG_OF_PERICENTER":"79.8098","PERIOD":"95.592","ELEMENT_SET_NO":"999","NORAD_CAT_ID":"47589","BSTAR":"0.00016512000000","MEAN_MOTION":"15.06401560","TIME_SYSTEM":"UTC","RA_OF_ASC_NODE":"114.9909","PERIAPSIS":"546.145","MEAN_MOTION_DDOT":"0.0000000000000","OBJECT_NAME":"STARLINK-1994","TLE_LINE1":"1 47589U 21009AT  23021.19251184  .00002179  00000-0  16512-3 0  9991","INCLINATION":"53.0528","RCS_SIZE":"LARGE","MEAN_MOTION_DOT":"0.00002179","DECAY_DATE":null,"FILE":"3756626","ECCENTRICITY":"0.00015360","CLASSIFICATION_TYPE":"U","SEMIMAJOR_AXIS":"6925.344","TLE_LINE2":"2 47589  53.0528 114.9909 0001536  79.8098 280.3064 15.06401560109042","MEAN_ANOMALY":"280.3064","OBJECT_ID":"2021-009AT","APOAPSIS":"548.273","LAUNCH_DATE":"2021-02-04","REF_FRAME":"TEME","MEAN_ELEMENT_THEORY":"SGP4","EPHEMERIS_TYPE":"0","CENTER_NAME":"EARTH","OBJECT_TYPE":"PAYLOAD","GP_ID":"223565179","COUNTRY_CODE":"US"},{"BSTAR":"-0.00002208400000","MEAN_MOTION":"15.06399025","PERIAPSIS":"546.641","TIME_SYSTEM":"UTC","RA_OF_ASC_NODE":"135.3227","OBJECT_NAME":"STARLINK-1995","MEAN_MOTION_DDOT":"0.0000000000000","TLE_LINE1":"1 47590U 21009AU  23021.11694624 -.00000610  00000-0 -22084-4 0  9997","RCS_SIZE":"LARGE","INCLINATION":"53.0531","DECAY_DATE":null,"MEAN_MOTION_DOT":"-0.00000610","EPOCH":"2023-01-21T02:48:24.155136","REV_AT_EPOCH":"10875","SITE":"AFETR","ARG_OF_PERICENTER":"142.7113","PERIOD":"95.592","ELEMENT_SET_NO":"999","NORAD_CAT_ID":"47590","REF_FRAME":"TEME","LAUNCH_DATE":"2021-02-04","APOAPSIS":"547.792","CENTER_NAME":"EARTH","EPHEMERIS_TYPE":"0","MEAN_ELEMENT_THEORY":"SGP4","OBJECT_TYPE":"PAYLOAD","COUNTRY_CODE":"US","GP_ID":"223565551","FILE":"3756626","ECCENTRICITY":"0.00008310","CLASSIFICATION_TYPE":"U","SEMIMAJOR_AXIS":"6925.352","OBJECT_ID":"2021-009AU","MEAN_ANOMALY":"217.3933","TLE_LINE2":"2 47590  53.0531 135.3227 0000831 142.7113 217.3933 15.06399025108757"},{"ARG_OF_PERICENTER":"90.4412","PERIOD":"95.592","ELEMENT_SET_NO":"999","NORAD_CAT_ID":"47591","EPOCH":"2023-01-21T15:40:40.855296","REV_AT_EPOCH":"10911","SITE":"AFETR","TLE_LINE1":"1 47591U 21009AV  23021.65325064  .00005079  00000-0  35953-3 0  9996","RCS_SIZE":"LARGE","INCLINATION":"53.0539","DECAY_DATE":null,"MEAN_MOTION_DOT":"0.00005079","BSTAR":"0.00035953000000","MEAN_MOTION":"15.06409383","PERIAPSIS":"546.211","TIME_SYSTEM":"UTC","RA_OF_ASC_NODE":"112.9161","OBJECT_NAME":"STARLINK-1996","MEAN_MOTION_DDOT":"0.0000000000000","CLASSIFICATION_TYPE":"U","SEMIMAJOR_AXIS":"6925.320","OBJECT_ID":"2021-009AV","MEAN_ANOMALY":"269.6738","TLE_LINE2":"2 47591  53.0539 112.9161 0001406  90.4412 269.6738 15.06409383109117","FILE":"3757204","ECCENTRICITY":"0.00014060","GP_ID":"223578924","COUNTRY_CODE":"US","REF_FRAME":"TEME","LAUNCH_DATE":"2021-02-04","APOAPSIS":"548.159","CENTER_NAME":"EARTH","EPHEMERIS_TYPE":"0","MEAN_ELEMENT_THEORY":"SGP4","OBJECT_TYPE":"PAYLOAD"}];
